IONOSFERA-M 4           
1 64877U 25155B   26182.14721052  .00000049  00000+0  42090-4 0  9992
2 64877  98.6030 143.6184 0001510 112.3567 247.7771 14.21491162 48388
MICROCARB               
1 64899U 25156A   26182.14817082  .00000623  00000+0  10504-3 0  9998
2 64899  97.9954 259.0484 0016469 216.2994 143.7097 14.72858276 50020
CO3D 3                  
1 64900U 25156B   26182.14206437  .00005124  00000+0  23964-3 0  9992
2 64900  97.4334 260.6344 0001819 112.5940 247.5488 15.20202487 51653
CO3D 4                  
1 64901U 25156C   26182.14222022  .00002775  00000+0  13128-3 0  9991
2 64901  97.4335 260.6347 0000796 182.9447 177.1784 15.20203771 51658
CO3D 2                  
1 64902U 25156D   26182.17469699  .00005607  00000+0  26190-3 0  9998
2 64902  97.4334 260.5653 0001471  94.8720 265.2683 15.20204759 51657
CO3D 1                  
1 64903U 25156E   26182.17484932  .00005492  00000+0  25657-3 0  9995
2 64903  97.4335 260.5655 0001362 104.8897 255.2489 15.20209836 51651
PRSC-S1                 
1 65055U 25164A   26182.18587296  .00003065  00000+0  21528-3 0  9998
2 65055  41.1287 208.9655 0005001  90.6671 269.4715 15.06554960 50545
SENTINEL-6B             
1 66514U 25264A   26182.13950008 -.00000056  00000+0  22763-4 0  9991
2 66514  66.0412 106.2003 0007916 268.9012  91.1096 12.80929956 28957
CAS500-3                
1 66655U 25274F   26182.06473080  .00001353  00000+0  15193-3 0  9998
2 66655  97.7444 109.8001 0006930  74.8073 285.3910 14.88354682 32216
CSG-3                   
1 67304U 26001A   26182.10617894  .00000335  00000+0  48603-4 0  9999
2 67304  97.8889   5.5065 0001487  95.4584 264.6798 14.82163210 26522
PRSC-E03                
1 68835U 26092A   26181.97322862  .00003297  00000+0  22467-3 0  9990
2 68835  38.0021   8.3837 0003048 148.0184 212.0763 15.06742885 10037
CAS500-2                
1 69013U 26100AK  26181.97075428  .00006994  00000+0  32043-3 0  9990
2 69013  97.3890  79.5717 0009130 348.9968  11.1066 15.20751719  8903
