OBJECT_NAME,OBJECT_ID,EPOCH,MEAN_MOTION,ECCENTRICITY,INCLINATION,RA_OF_ASC_NODE,ARG_OF_PERICENTER,MEAN_ANOMALY,EPHEMERIS_TYPE,CLASSIFICATION_TYPE,NORAD_CAT_ID,ELEMENT_SET_NO,REV_AT_EPOCH,BSTAR,MEAN_MOTION_DOT,MEAN_MOTION_DDOT
IONOSFERA-M 4,2025-155B,2026-07-01T03:31:58.988928,14.21491162,.000151,98.6030,143.6184,112.3567,247.7771,0,U,64877,999,4838,.4209E-4,.49E-6,0
MICROCARB,2025-156A,2026-07-01T03:33:21.958848,14.72858276,.0016469,97.9954,259.0484,216.2994,143.7097,0,U,64899,999,5002,.10504E-3,.623E-5,0
CO3D 3,2025-156B,2026-07-01T03:24:34.361568,15.20202487,.0001819,97.4334,260.6344,112.5940,247.5488,0,U,64900,999,5165,.23964E-3,.5124E-4,0
CO3D 4,2025-156C,2026-07-01T03:24:47.827008,15.20203771,.0000796,97.4335,260.6347,182.9447,177.1784,0,U,64901,999,5165,.13128E-3,.2775E-4,0
CO3D 2,2025-156D,2026-07-01T04:11:33.819936,15.20204759,.0001471,97.4334,260.5653,94.8720,265.2683,0,U,64902,999,5165,.2619E-3,.5607E-4,0
CO3D 1,2025-156E,2026-07-01T04:11:46.981248,15.20209836,.0001362,97.4335,260.5655,104.8897,255.2489,0,U,64903,999,5165,.25657E-3,.5492E-4,0
PRSC-S1,2025-164A,2026-07-01T04:27:39.423744,15.06554960,.0005001,41.1287,208.9655,90.6671,269.4715,0,U,65055,999,5054,.21528E-3,.3065E-4,0
SENTINEL-6B,2025-264A,2026-07-01T03:20:52.806912,12.80929956,.0007916,66.0412,106.2003,268.9012,91.1096,0,U,66514,999,2895,.22763E-4,-.56E-6,0
CAS500-3,2025-274F,2026-07-01T01:33:12.741120,14.88354682,.000693,97.7444,109.8001,74.8073,285.3910,0,U,66655,999,3221,.15193E-3,.1353E-4,0
CSG-3,2026-001A,2026-07-01T02:32:53.860416,14.82163210,.0001487,97.8889,5.5065,95.4584,264.6798,0,U,67304,999,2652,.48603E-4,.335E-5,0
PRSC-E03,2026-092A,2026-06-30T23:21:26.952768,15.06742885,.0003048,38.0021,8.3837,148.0184,212.0763,0,U,68835,999,1003,.22467E-3,.3297E-4,0
CAS500-2,2026-100AK,2026-06-30T23:17:53.169792,15.20751719,.000913,97.3890,79.5717,348.9968,11.1066,0,U,69013,999,890,.32043E-3,.6994E-4,0
